STARLINK-35588          
1 66424U 25259C   25328.83337963 -.00076494  00000+0 -49831-3 0  9996
2 66424  43.0028 153.0306 0001442 270.0207 322.6118 15.75088377  3409
STARLINK-35555          
1 66425U 25259D   25328.83337963  .00102999  00000+0  66754-3 0  9998
2 66425  42.9993 153.0246 0000930 281.5398 313.0886 15.74967692  3402
STARLINK-35589          
1 66426U 25259E   25328.83337963  .00048451  00000+0  31667-3 0  9996
2 66426  42.9992 153.0209 0002003 273.1235 323.3499 15.75040535  3404
STARLINK-35611          
1 66427U 25259F   25328.83337963 -.00005633  00000+0 -33552-4 0  9990
2 66427  42.9991 153.0157 0001889 270.1738 328.2155 15.75059444  3404
STARLINK-35610          
1 66428U 25259G   25328.83337963 -.00025695  00000+0 -16445-3 0  9992
2 66428  42.9992 153.0109 0001509 273.8486 326.4561 15.75068872  3408
STARLINK-35533          
1 66429U 25259H   25328.83337963  .00028526  00000+0  18830-3 0  9997
2 66429  42.9996 153.0050 0001951 274.4364 327.7784 15.75023784  3405
STARLINK-35470          
1 66430U 25259J   25328.83337963  .00058689  00000+0  38270-3 0  9992
2 66430  42.9995 153.0011 0001762 273.0214 331.1310 15.75027202  3405
STARLINK-35439          
1 66431U 25259K   25328.83337963  .00109866  00000+0  71009-3 0  9994
2 66431  42.9993 152.9953 0001589 265.8121 340.2600 15.75005142  3402
STARLINK-35446          
1 66432U 25259L   25328.83337963  .00079782  00000+0  51799-3 0  9992
2 66432  42.9994 152.9897 0001547 274.9506 333.0321 15.75020780  3408
STARLINK-35457          
1 66433U 25259M   25328.83337963  .00027402  00000+0  18087-3 0  9998
2 66433  42.9994 152.9863 0001314 275.9767 333.9185 15.75045022  3407
STARLINK-35389          
1 66434U 25259N   25328.83337963  .00054847  00000+0  35796-3 0  9998
2 66434  42.9993 152.9813 0001906 277.0926 334.7170 15.75030794  3402
STARLINK-35502          
1 66435U 25259P   25328.83337963  .00097200  00000+0  62934-3 0  9993
2 66435  42.9994 152.9774 0002064 269.2497 344.4779 15.75011285  3409
